ONEWEB-0403             
1 50483U 21132Q   26188.90851316  .00000036  00000+0  58593-4 0  9999
2 50483  87.9191 331.3341 0001869  91.8857 268.2489 13.18685982224320
ONEWEB-0404             
1 50484U 21132R   26189.46569950 -.00000427  00000+0 -12419-2 0  9993
2 50484  87.8882  16.8305 0001954  78.9732 281.1616 13.11414984218486
ONEWEB-0405             
1 50485U 21132S   26189.37724823 -.00000008  00000+0 -52952-4 0  9999
2 50485  87.9194 331.2260 0002353  98.7697 261.3701 13.18684660224784
ONEWEB-0406             
1 50486U 21132T   26189.36882634  .00000045  00000+0  82200-4 0  9992
2 50486  87.9187 331.2432 0001935  80.7565 279.3785 13.18686318224411
ONEWEB-0407             
1 50487U 21132U   26189.36207639  .00000067  00000+0  13738-3 0  9992
2 50487  87.9192 331.2373 0001881 103.8793 256.2548 13.18687820224355
ONEWEB-0409             
1 50488U 21132V   26188.92993149 -.00000447  00000+0 -12960-2 0  9991
2 50488  87.8885  16.9258 0002042  82.2957 277.8402 13.11415446218307
ONEWEB-0412             
1 50489U 21132W   26189.35027970  .00000073  00000+0  15210-3 0  9995
2 50489  87.9188 331.2476 0001574 100.8548 259.2761 13.18686236224440
ONEWEB-0413             
1 50490U 21132X   26189.35534036  .00000070  00000+0  14479-3 0  9996
2 50490  87.9180 331.2434 0001699 104.6968 255.4352 13.18687411224387
ONEWEB-0414             
1 50491U 21132Y   26188.96078144  .00000095  00000+0  20811-3 0  9990
2 50491  87.9189 331.3062 0001688  96.8196 263.3129 13.18685959224361
ONEWEB-0417             
1 50492U 21132Z   26189.34859157  .00000109  00000+0  24310-3 0  9999
2 50492  87.9183 331.2472 0001921  89.5152 270.6200 13.18686483224398
ONEWEB-0418             
1 50493U 21132AA  26188.90330843  .00000064  00000+0  12942-3 0  9995
2 50493  87.9185 331.3361 0001970  88.8455 271.2903 13.18685550224392
ONEWEB-0419             
1 50494U 21132AB  26189.37749000  .00000013  00000+0  10266-5 0  9990
2 50494  87.9192 331.2421 0002137  93.3437 266.7939 13.18666128224370
ONEWEB-0420             
1 50495U 21132AC  26189.34183647  .00000069  00000+0  14351-3 0  9995
2 50495  87.9179 331.2503 0001902 103.1209 257.0136 13.18687299224366
ONEWEB-0421             
1 50496U 21132AD  26189.33511398 -.00000125  00000+0 -34986-3 0  9994
2 50496  87.9190 331.2508 0001326  92.9873 267.1411 13.18684347224401
ONEWEB-0424             
1 50497U 21132AE  26189.37220267  .00000034  00000+0  54139-4 0  9991
2 50497  87.9189 331.2415 0002256  95.3510 264.7879 13.18686302224432
ONEWEB-0426             
1 50498U 21132AF  26189.33089065  .00000055  00000+0  10736-3 0  9994
2 50498  87.9189 331.2408 0001572  75.0439 285.0867 13.18686155224372
