{"fetched_at":"2026-07-08T17:59:25.198Z","source":"https://celestrak.org/NORAD/elements/gp.php?GROUP=oneweb&FORMAT=JSON","constellation":"oneweb","records":[{"OBJECT_NAME":"ONEWEB-0403","OBJECT_ID":"2021-132Q","EPOCH":"2026-07-07T21:48:15.537024","CLASSIFICATION_TYPE":"U","MEAN_MOTION":13.18685982,"ECCENTRICITY":0.0001869,"INCLINATION":87.9191,"RA_OF_ASC_NODE":331.3341,"ARG_OF_PERICENTER":91.8857,"MEAN_ANOMALY":268.2489,"EPHEMERIS_TYPE":0,"NORAD_CAT_ID":50483,"ELEMENT_SET_NO":999,"REV_AT_EPOCH":22432,"BSTAR":0.000058593,"MEAN_MOTION_DOT":3.6e-7,"MEAN_MOTION_DDOT":0},{"OBJECT_NAME":"ONEWEB-0404","OBJECT_ID":"2021-132R","EPOCH":"2026-07-08T11:10:36.436800","CLASSIFICATION_TYPE":"U","MEAN_MOTION":13.11414984,"ECCENTRICITY":0.0001954,"INCLINATION":87.8882,"RA_OF_ASC_NODE":16.8305,"ARG_OF_PERICENTER":78.9732,"MEAN_ANOMALY":281.1616,"EPHEMERIS_TYPE":0,"NORAD_CAT_ID":50484,"ELEMENT_SET_NO":999,"REV_AT_EPOCH":21848,"BSTAR":-0.0012419,"MEAN_MOTION_DOT":-0.00000427,"MEAN_MOTION_DDOT":0},{"OBJECT_NAME":"ONEWEB-0405","OBJECT_ID":"2021-132S","EPOCH":"2026-07-08T09:03:14.247072","CLASSIFICATION_TYPE":"U","MEAN_MOTION":13.1868466,"ECCENTRICITY":0.0002353,"INCLINATION":87.9194,"RA_OF_ASC_NODE":331.226,"ARG_OF_PERICENTER":98.7697,"MEAN_ANOMALY":261.3701,"EPHEMERIS_TYPE":0,"NORAD_CAT_ID":50485,"ELEMENT_SET_NO":999,"REV_AT_EPOCH":22478,"BSTAR":-0.000052952,"MEAN_MOTION_DOT":-8e-8,"MEAN_MOTION_DDOT":0},{"OBJECT_NAME":"ONEWEB-0406","OBJECT_ID":"2021-132T","EPOCH":"2026-07-08T08:51:06.595776","CLASSIFICATION_TYPE":"U","MEAN_MOTION":13.18686318,"ECCENTRICITY":0.0001935,"INCLINATION":87.9187,"RA_OF_ASC_NODE":331.2432,"ARG_OF_PERICENTER":80.7565,"MEAN_ANOMALY":279.3785,"EPHEMERIS_TYPE":0,"NORAD_CAT_ID":50486,"ELEMENT_SET_NO":999,"REV_AT_EPOCH":22441,"BSTAR":0.0000822,"MEAN_MOTION_DOT":4.5e-7,"MEAN_MOTION_DDOT":0},{"OBJECT_NAME":"ONEWEB-0407","OBJECT_ID":"2021-132U","EPOCH":"2026-07-08T08:41:23.400096","CLASSIFICATION_TYPE":"U","MEAN_MOTION":13.1868782,"ECCENTRICITY":0.0001881,"INCLINATION":87.9192,"RA_OF_ASC_NODE":331.2373,"ARG_OF_PERICENTER":103.8793,"MEAN_ANOMALY":256.2548,"EPHEMERIS_TYPE":0,"NORAD_CAT_ID":50487,"ELEMENT_SET_NO":999,"REV_AT_EPOCH":22435,"BSTAR":0.00013738,"MEAN_MOTION_DOT":6.7e-7,"MEAN_MOTION_DDOT":0},{"OBJECT_NAME":"ONEWEB-0409","OBJECT_ID":"2021-132V","EPOCH":"2026-07-07T22:19:06.080736","CLASSIFICATION_TYPE":"U","MEAN_MOTION":13.11415446,"ECCENTRICITY":0.0002042,"INCLINATION":87.8885,"RA_OF_ASC_NODE":16.9258,"ARG_OF_PERICENTER":82.2957,"MEAN_ANOMALY":277.8402,"EPHEMERIS_TYPE":0,"NORAD_CAT_ID":50488,"ELEMENT_SET_NO":999,"REV_AT_EPOCH":21830,"BSTAR":-0.001296,"MEAN_MOTION_DOT":-0.00000447,"MEAN_MOTION_DDOT":0},{"OBJECT_NAME":"ONEWEB-0412","OBJECT_ID":"2021-132W","EPOCH":"2026-07-08T08:24:24.166080","CLASSIFICATION_TYPE":"U","MEAN_MOTION":13.18686236,"ECCENTRICITY":0.0001574,"INCLINATION":87.9188,"RA_OF_ASC_NODE":331.2476,"ARG_OF_PERICENTER":100.8548,"MEAN_ANOMALY":259.2761,"EPHEMERIS_TYPE":0,"NORAD_CAT_ID":50489,"ELEMENT_SET_NO":999,"REV_AT_EPOCH":22444,"BSTAR":0.0001521,"MEAN_MOTION_DOT":7.3e-7,"MEAN_MOTION_DDOT":0},{"OBJECT_NAME":"ONEWEB-0413","OBJECT_ID":"2021-132X","EPOCH":"2026-07-08T08:31:41.407104","CLASSIFICATION_TYPE":"U","MEAN_MOTION":13.18687411,"ECCENTRICITY":0.0001699,"INCLINATION":87.918,"RA_OF_ASC_NODE":331.2434,"ARG_OF_PERICENTER":104.6968,"MEAN_ANOMALY":255.4352,"EPHEMERIS_TYPE":0,"NORAD_CAT_ID":50490,"ELEMENT_SET_NO":999,"REV_AT_EPOCH":22438,"BSTAR":0.00014479,"MEAN_MOTION_DOT":7e-7,"MEAN_MOTION_DDOT":0},{"OBJECT_NAME":"ONEWEB-0414","OBJECT_ID":"2021-132Y","EPOCH":"2026-07-07T23:03:31.516416","CLASSIFICATION_TYPE":"U","MEAN_MOTION":13.18685959,"ECCENTRICITY":0.0001688,"INCLINATION":87.9189,"RA_OF_ASC_NODE":331.3062,"ARG_OF_PERICENTER":96.8196,"MEAN_ANOMALY":263.3129,"EPHEMERIS_TYPE":0,"NORAD_CAT_ID":50491,"ELEMENT_SET_NO":999,"REV_AT_EPOCH":22436,"BSTAR":0.00020811,"MEAN_MOTION_DOT":9.5e-7,"MEAN_MOTION_DDOT":0},{"OBJECT_NAME":"ONEWEB-0417","OBJECT_ID":"2021-132Z","EPOCH":"2026-07-08T08:21:58.311648","CLASSIFICATION_TYPE":"U","MEAN_MOTION":13.18686483,"ECCENTRICITY":0.0001921,"INCLINATION":87.9183,"RA_OF_ASC_NODE":331.2472,"ARG_OF_PERICENTER":89.5152,"MEAN_ANOMALY":270.62,"EPHEMERIS_TYPE":0,"NORAD_CAT_ID":50492,"ELEMENT_SET_NO":999,"REV_AT_EPOCH":22439,"BSTAR":0.0002431,"MEAN_MOTION_DOT":0.00000109,"MEAN_MOTION_DDOT":0},{"OBJECT_NAME":"ONEWEB-0418","OBJECT_ID":"2021-132AA","EPOCH":"2026-07-07T21:40:45.848352","CLASSIFICATION_TYPE":"U","MEAN_MOTION":13.1868555,"ECCENTRICITY":0.000197,"INCLINATION":87.9185,"RA_OF_ASC_NODE":331.3361,"ARG_OF_PERICENTER":88.8455,"MEAN_ANOMALY":271.2903,"EPHEMERIS_TYPE":0,"NORAD_CAT_ID":50493,"ELEMENT_SET_NO":999,"REV_AT_EPOCH":22439,"BSTAR":0.00012942,"MEAN_MOTION_DOT":6.4e-7,"MEAN_MOTION_DDOT":0},{"OBJECT_NAME":"ONEWEB-0419","OBJECT_ID":"2021-132AB","EPOCH":"2026-07-08T09:03:35.136000","CLASSIFICATION_TYPE":"U","MEAN_MOTION":13.18666128,"ECCENTRICITY":0.0002137,"INCLINATION":87.9192,"RA_OF_ASC_NODE":331.2421,"ARG_OF_PERICENTER":93.3437,"MEAN_ANOMALY":266.7939,"EPHEMERIS_TYPE":0,"NORAD_CAT_ID":50494,"ELEMENT_SET_NO":999,"REV_AT_EPOCH":22437,"BSTAR":0.0000010266,"MEAN_MOTION_DOT":1.3e-7,"MEAN_MOTION_DDOT":0},{"OBJECT_NAME":"ONEWEB-0420","OBJECT_ID":"2021-132AC","EPOCH":"2026-07-08T08:12:14.671008","CLASSIFICATION_TYPE":"U","MEAN_MOTION":13.18687299,"ECCENTRICITY":0.0001902,"INCLINATION":87.9179,"RA_OF_ASC_NODE":331.2503,"ARG_OF_PERICENTER":103.1209,"MEAN_ANOMALY":257.0136,"EPHEMERIS_TYPE":0,"NORAD_CAT_ID":50495,"ELEMENT_SET_NO":999,"REV_AT_EPOCH":22436,"BSTAR":0.00014351,"MEAN_MOTION_DOT":6.9e-7,"MEAN_MOTION_DDOT":0},{"OBJECT_NAME":"ONEWEB-0421","OBJECT_ID":"2021-132AD","EPOCH":"2026-07-08T08:02:33.847872","CLASSIFICATION_TYPE":"U","MEAN_MOTION":13.18684347,"ECCENTRICITY":0.0001326,"INCLINATION":87.919,"RA_OF_ASC_NODE":331.2508,"ARG_OF_PERICENTER":92.9873,"MEAN_ANOMALY":267.1411,"EPHEMERIS_TYPE":0,"NORAD_CAT_ID":50496,"ELEMENT_SET_NO":999,"REV_AT_EPOCH":22440,"BSTAR":-0.00034986,"MEAN_MOTION_DOT":-0.00000125,"MEAN_MOTION_DDOT":0},{"OBJECT_NAME":"ONEWEB-0424","OBJECT_ID":"2021-132AE","EPOCH":"2026-07-08T08:55:58.310688","CLASSIFICATION_TYPE":"U","MEAN_MOTION":13.18686302,"ECCENTRICITY":0.0002256,"INCLINATION":87.9189,"RA_OF_ASC_NODE":331.2415,"ARG_OF_PERICENTER":95.351,"MEAN_ANOMALY":264.7879,"EPHEMERIS_TYPE":0,"NORAD_CAT_ID":50497,"ELEMENT_SET_NO":999,"REV_AT_EPOCH":22443,"BSTAR":0.000054139,"MEAN_MOTION_DOT":3.4e-7,"MEAN_MOTION_DDOT":0},{"OBJECT_NAME":"ONEWEB-0426","OBJECT_ID":"2021-132AF","EPOCH":"2026-07-08T07:56:28.952160","CLASSIFICATION_TYPE":"U","MEAN_MOTION":13.18686155,"ECCENTRICITY":0.0001572,"INCLINATION":87.9189,"RA_OF_ASC_NODE":331.2408,"ARG_OF_PERICENTER":75.0439,"MEAN_ANOMALY":285.0867,"EPHEMERIS_TYPE":0,"NORAD_CAT_ID":50498,"ELEMENT_SET_NO":999,"REV_AT_EPOCH":22437,"BSTAR":0.00010736,"MEAN_MOTION_DOT":5.5e-7,"MEAN_MOTION_DDOT":0}]}
